[
    {
        "OBJECT_NAME": "COSMOS 2419 [GLONASS-M]",
        "OBJECT_ID": "2005-050A",
        "EPOCH": "2025-03-10T08:24:55.386720",
        "MEAN_MOTION": 2.13108211,
        "ECCENTRICITY": 0.0015474,
        "INCLINATION": 65.8137,
        "RA_OF_ASC_NODE": 331.6785,
        "ARG_OF_PERICENTER": 336.0578,
        "MEAN_ANOMALY": 219.2914,
        "EPHEMERIS_TYPE": 0,
        "CLASSIFICATION_TYPE": "U",
        "NORAD_CAT_ID": 28915,
        "ELEMENT_SET_NO": 999,
        "REV_AT_EPOCH": 14948,
        "BSTAR": 0,
        "MEAN_MOTION_DOT": -7.3e-07,
        "MEAN_MOTION_DDOT": 0
    },
    {
        "OBJECT_NAME": "COSMOS 2418 [GLONASS-M]",
        "OBJECT_ID": "2005-050B",
        "EPOCH": "2025-03-09T09:04:38.496576",
        "MEAN_MOTION": 2.13106326,
        "ECCENTRICITY": 0.0012465,
        "INCLINATION": 65.8359,
        "RA_OF_ASC_NODE": 331.8749,
        "ARG_OF_PERICENTER": 283.1034,
        "MEAN_ANOMALY": 258.2191,
        "EPHEMERIS_TYPE": 0,
        "CLASSIFICATION_TYPE": "U",
        "NORAD_CAT_ID": 28916,
        "ELEMENT_SET_NO": 999,
        "REV_AT_EPOCH": 14935,
        "BSTAR": 0,
        "MEAN_MOTION_DOT": -7.6e-07,
        "MEAN_MOTION_DDOT": 0
    },
    {
        "OBJECT_NAME": "COSMOS 2426 [GLONASS-M]",
        "OBJECT_ID": "2006-062B",
        "EPOCH": "2025-03-08T18:46:13.876320",
        "MEAN_MOTION": 2.12963208,
        "ECCENTRICITY": 0.0021585,
        "INCLINATION": 64.7,
        "RA_OF_ASC_NODE": 210.0045,
        "ARG_OF_PERICENTER": 178.3702,
        "MEAN_ANOMALY": 181.5339,
        "EPHEMERIS_TYPE": 0,
        "CLASSIFICATION_TYPE": "U",
        "NORAD_CAT_ID": 29671,
        "ELEMENT_SET_NO": 999,
        "REV_AT_EPOCH": 14164,
        "BSTAR": 0,
        "MEAN_MOTION_DOT": 1.5e-07,
        "MEAN_MOTION_DDOT": 0
    },
    {
        "OBJECT_NAME": "COSMOS 2424 [GLONASS-M]",
        "OBJECT_ID": "2006-062C",
        "EPOCH": "2025-03-07T23:03:43.621920",
        "MEAN_MOTION": 2.13122592,
        "ECCENTRICITY": 0.0019736,
        "INCLINATION": 64.6964,
        "RA_OF_ASC_NODE": 209.8182,
        "ARG_OF_PERICENTER": 172.1215,
        "MEAN_ANOMALY": 187.8813,
        "EPHEMERIS_TYPE": 0,
        "CLASSIFICATION_TYPE": "U",
        "NORAD_CAT_ID": 29672,
        "ELEMENT_SET_NO": 999,
        "REV_AT_EPOCH": 14164,
        "BSTAR": 0,
        "MEAN_MOTION_DOT": 2.8e-07,
        "MEAN_MOTION_DDOT": 0
    },
    {
        "OBJECT_NAME": "COSMOS 2432 [GLONASS-M]",
        "OBJECT_ID": "2007-052B",
        "EPOCH": "2025-03-10T14:21:20.808000",
        "MEAN_MOTION": 2.1310322,
        "ECCENTRICITY": 0.0011019,
        "INCLINATION": 65.8371,
        "RA_OF_ASC_NODE": 331.6129,
        "ARG_OF_PERICENTER": 331.2472,
        "MEAN_ANOMALY": 211.6494,
        "EPHEMERIS_TYPE": 0,
        "CLASSIFICATION_TYPE": "U",
        "NORAD_CAT_ID": 32276,
        "ELEMENT_SET_NO": 999,
        "REV_AT_EPOCH": 13521,
        "BSTAR": 0,
        "MEAN_MOTION_DOT": -7.2e-07,
        "MEAN_MOTION_DDOT": 0
    },
    {
        "OBJECT_NAME": "COSMOS 2431 [GLONASS-M]",
        "OBJECT_ID": "2007-052C",
        "EPOCH": "2025-03-08T05:29:06.866016",
        "MEAN_MOTION": 2.1320882,
        "ECCENTRICITY": 0.0013976,
        "INCLINATION": 65.8359,
        "RA_OF_ASC_NODE": 331.5056,
        "ARG_OF_PERICENTER": 176.0379,
        "MEAN_ANOMALY": 288.8807,
        "EPHEMERIS_TYPE": 0,
        "CLASSIFICATION_TYPE": "U",
        "NORAD_CAT_ID": 32277,
        "ELEMENT_SET_NO": 999,
        "REV_AT_EPOCH": 13528,
        "BSTAR": 0,
        "MEAN_MOTION_DOT": -7.7e-07,
        "MEAN_MOTION_DDOT": 0
    },
    {
        "OBJECT_NAME": "COSMOS 2435 [GLONASS-M]",
        "OBJECT_ID": "2007-065B",
        "EPOCH": "2025-03-08T09:15:21.915648",
        "MEAN_MOTION": 2.13115181,
        "ECCENTRICITY": 0.0024857,
        "INCLINATION": 64.3214,
        "RA_OF_ASC_NODE": 207.6284,
        "ARG_OF_PERICENTER": 359.7967,
        "MEAN_ANOMALY": 0.1715,
        "EPHEMERIS_TYPE": 0,
        "CLASSIFICATION_TYPE": "U",
        "NORAD_CAT_ID": 32394,
        "ELEMENT_SET_NO": 999,
        "REV_AT_EPOCH": 13381,
        "BSTAR": 0,
        "MEAN_MOTION_DOT": 1.6e-07,
        "MEAN_MOTION_DDOT": 0
    },
    {
        "OBJECT_NAME": "COSMOS 2436 [GLONASS-M]",
        "OBJECT_ID": "2007-065C",
        "EPOCH": "2025-03-10T06:09:38.581056",
        "MEAN_MOTION": 2.13100199,
        "ECCENTRICITY": 0.0017125,
        "INCLINATION": 64.3262,
        "RA_OF_ASC_NODE": 207.6372,
        "ARG_OF_PERICENTER": 6.6334,
        "MEAN_ANOMALY": 354.8736,
        "EPHEMERIS_TYPE": 0,
        "CLASSIFICATION_TYPE": "U",
        "NORAD_CAT_ID": 32395,
        "ELEMENT_SET_NO": 999,
        "REV_AT_EPOCH": 13384,
        "BSTAR": 0,
        "MEAN_MOTION_DOT": -1.1e-07,
        "MEAN_MOTION_DDOT": 0
    }
]