28915,COSMOS 2419 [GLONASS-M],2005,675.71,-1.0,-,65.81,Inactive,0,MEO,Kazakhstan,Russia/USSR,Unknown,Unknown,Unknown,1 28915U 05050A   25069.35064105 -.00000073  00000+0  00000+0 0  9990,2 28915  65.8137 331.6785 0015474 336.0578 219.2914  2.13108211149486,2.13108211,0.0015474,MEO
28916,COSMOS 2418 [GLONASS-M],2005,675.72,-1.0,-,65.84,Inactive,0,MEO,Kazakhstan,Russia/USSR,Unknown,Unknown,Unknown,1 28916U 05050B   25068.37822334 -.00000076  00000+0  00000+0 0  9991,2 28916  65.8359 331.8749 0012465 283.1034 258.2191  2.13106326149352,2.13106326,0.0012465,MEO
29671,COSMOS 2426 [GLONASS-M],2006,676.17,1480.0,-,64.7,Inactive,1,MEO,Kazakhstan,Russia/USSR,Commercial/Military,Navigation (Global or Regional Positioning),Proton,1 29671U 06062B   25067.78210505  .00000015  00000+0  00000+0 0  9991,2 29671  64.7000 210.0045 0021585 178.3702 181.5339  2.12963208141644,2.12963208,0.0021585,MEO
29672,COSMOS 2424 [GLONASS-M],2006,675.67,-1.0,-,64.7,Inactive,0,MEO,Kazakhstan,Russia/USSR,Unknown,Unknown,Unknown,1 29672U 06062C   25066.96092155  .00000028  00000+0  00000+0 0  9994,2 29672  64.6964 209.8182 0019736 172.1215 187.8813  2.13122592141647,2.13122592,0.0019736,MEO
32277,COSMOS 2431 [GLONASS-M],2007,675.39,-1.0,-,65.84,Inactive,0,MEO,Kazakhstan,Russia/USSR,Unknown,Unknown,Unknown,1 32277U 07052C   25067.22855169 -.00000077  00000+0  00000+0 0  9996,2 32277  65.8359 331.5056 0013976 176.0379 288.8807  2.13208820135287,2.1320882,0.0013976,MEO
32394,COSMOS 2435 [GLONASS-M],2007,675.69,-1.0,-,64.32,Inactive,0,MEO,Kazakhstan,Russia/USSR,Unknown,Unknown,Unknown,1 32394U 07065B   25067.38567032  .00000016  00000+0  00000+0 0  9998,2 32394  64.3214 207.6284 0024857 359.7967   0.1715  2.13115181133817,2.13115181,0.0024857,MEO
32276,COSMOS 2432 [GLONASS-M],2007,675.73,1480.0,+,65.84,Active,1,MEO,Kazakhstan,Russia/USSR,Commercial/Military,Navigation (Global or Regional Positioning),Proton,1 32276U 07052B   25069.59815750 -.00000072  00000+0  00000+0 0  9994,2 32276  65.8371 331.6129 0011019 331.2472 211.6494  2.13103220135203,2.1310322,0.0011019,MEO
32395,COSMOS 2436 [GLONASS-M],2007,675.74,1480.0,+,64.33,Active,1,MEO,Kazakhstan,Russia/USSR,Commercial/Military,Navigation (Global or Regional Positioning),Proton,1 32395U 07065C   25069.25669654 -.00000011  00000+0  00000+0 0  9996,2 32395  64.3262 207.6372 0017125   6.6334 354.8736  2.13100199133843,2.13100199,0.0017125,MEO
